NORAD_CAT_ID,OBJECT_NAME,OBJECT_TYPE,EPOCH,MEAN_MOTION,ECCENTRICITY,INCLINATION,RA_OF_ASC_NODE,ARG_OF_PERICENTER,MEAN_ANOMALY,BSTAR,MEAN_MOTION_DOT,MEAN_MOTION_DDOT,TLE_LINE0,TLE_LINE1,TLE_LINE2,SEMIMAJOR_AXIS,PERIOD,APOGEE,PERIGEE,DECAYED
53929.0,STARLINK-5018,PAYLOAD,2023-11-06 19:40:35,15.0885572,8.96e-05,53.2166,186.9956,92.3089,267.8006,0.0010076,0.00015791,0.0,0 STARLINK-5018,1 53929U 22119AV  23310.81985112  .00015791  00000-0  10076-2 0  9996,2 53929  53.2166 186.9956 0000896  92.3089 267.8006 15.08855720 62504,6917.832,95.437,540.317,539.078,0.0
53929.0,STARLINK-5018,PAYLOAD,2023-11-06 22:51:21,15.08808061,0.0001132,53.2166,186.4002,70.5694,289.5421,-0.0013202,-0.00021219,0.0,0 STARLINK-5018,1 53929U 22119AV  23310.95233332 -.00021219  00000-0 -13202-2 0  9999,2 53929  53.2166 186.4002 0001132  70.5694 289.5421 15.08808061 62941,6917.978,95.44,540.626,539.06,0.0
53929.0,STARLINK-5018,PAYLOAD,2023-11-07 02:02:08,15.087988,0.0001225,53.2167,185.8077,78.7503,281.3626,-0.0011082,-0.00017861,0.0,0 STARLINK-5018,1 53929U 22119AV  23311.08481876 -.00017861  00000-0 -11082-2 0  9994,2 53929  53.2167 185.8077 0001225  78.7503 281.3626 15.08798800 62541,6918.006,95.44,540.719,539.024,0.0
53929.0,STARLINK-5018,PAYLOAD,2023-11-07 08:23:41,15.08816177,0.0001212,53.2168,184.6192,85.7006,274.4125,-0.00036569,-6.099e-05,0.0,0 STARLINK-5018,1 53929U 22119AV  23311.34978522 -.00006099  00000-0 -36569-3 0  9991,2 53929  53.2168 184.6192 0001212  85.7006 274.4125 15.08816177 62588,6917.953,95.439,540.657,538.98,0.0
53929.0,STARLINK-5018,PAYLOAD,2023-11-07 22:42:10,15.08824355,0.0001167,53.2163,181.9441,88.3054,271.8072,0.0011357,0.00017825,0.0,0 STARLINK-5018,1 53929U 22119AV  23311.94595800  .00017825  00000-0  11357-2 0  9995,2 53929  53.2163 181.9441 0001167  88.3054 271.8072 15.08824355 62670,6917.928,95.439,540.601,538.986,0.0
53929.0,STARLINK-5018,PAYLOAD,2023-11-08 22:32:57,15.08854185,0.0001224,53.216,177.4831,88.5513,271.5619,0.00077875,0.00012132,0.0,0 STARLINK-5018,1 53929U 22119AV  23312.93955567  .00012132  00000-0  77875-3 0  9999,2 53929  53.2160 177.4831 0001224  88.5513 271.5619 15.08854185 63248,6917.837,95.437,540.549,538.855,0.0
53929.0,STARLINK-5018,PAYLOAD,2023-11-09 00:08:20,15.08857153,0.0001209,53.216,177.1865,91.2181,268.895,0.00086462,0.00013506,0.0,0 STARLINK-5018,1 53929U 22119AV  23313.00579478  .00013506  00000-0  86462-3 0  9999,2 53929  53.2160 177.1865 0001209  91.2181 268.8950 15.08857153 62836,6917.828,95.436,540.529,538.857,0.0
53929.0,STARLINK-5018,PAYLOAD,2023-11-09 19:12:58,15.08847782,0.0001035,53.2156,173.6185,80.4623,279.6486,0.00045425,6.95e-05,0.0,0 STARLINK-5018,1 53929U 22119AV  23313.80067475  .00006950  00000-0  45425-3 0  9995,2 53929  53.2156 173.6185 0001035  80.4623 279.6486 15.08847782 62959,6917.857,95.437,540.438,539.006,0.0
53929.0,STARLINK-5018,PAYLOAD,2023-11-09 22:23:44,15.08852063,0.0001221,53.2154,173.024,99.1975,260.9155,0.00050674,7.789e-05,0.0,0 STARLINK-5018,1 53929U 22119AV  23313.93315329  .00007789  00000-0  50674-3 0  9996,2 53929  53.2154 173.0240 0001221  99.1975 260.9155 15.08852063 63390,6917.844,95.437,540.553,538.864,0.0
53929.0,STARLINK-5018,PAYLOAD,2023-11-10 07:56:03,15.08843733,0.0001444,53.2152,171.2394,95.3526,264.7631,0.00036957,5.599e-05,0.0,0 STARLINK-5018,1 53929U 22119AV  23314.33059510  .00005599  00000-0  36957-3 0  9993,2 53929  53.2152 171.2394 0001444  95.3526 264.7631 15.08843733 63031,6917.869,95.437,540.733,538.735,0.0
53929.0,STARLINK-5018,PAYLOAD,2023-11-10 20:39:08,15.08843178,0.000132,53.2148,168.8585,100.673,259.4411,0.00022065,3.226e-05,0.0,0 STARLINK-5018,1 53929U 22119AV  23314.86051467  .00003226  00000-0  22065-3 0  9994,2 53929  53.2148 168.8585 0001320 100.6730 259.4411 15.08843178 63535,6917.871,95.437,540.649,538.823,0.0
53929.0,STARLINK-5018,PAYLOAD,2023-11-10 23:49:54,15.08845973,0.0001324,53.2154,168.2642,98.3182,261.796,0.00012772,1.746e-05,0.0,0 STARLINK-5018,1 53929U 22119AV  23314.99299348  .00001746  00000-0  12772-3 0  9999,2 53929  53.2154 168.2642 0001324  98.3182 261.7960 15.08845973 63134,6917.862,95.437,540.643,538.811,0.0
53929.0,STARLINK-5018,PAYLOAD,2023-11-11 20:29:55,15.08840044,0.0001315,53.2151,164.3988,99.4629,260.6512,4.9574e-05,5.01e-06,0.0,0 STARLINK-5018,1 53929U 22119AV  23315.85411844  .00000501  00000-0  49574-4 0  9991,2 53929  53.2151 164.3988 0001315  99.4629 260.6512 15.08840044 63268,6917.88,95.438,540.655,538.836,0.0
53929.0,STARLINK-5018,PAYLOAD,2023-11-12 07:37:37,15.08842771,0.0001361,53.216,162.3163,99.6679,260.4467,0.00011534,1.548e-05,0.0,0 STARLINK-5018,1 53929U 22119AV  23316.31779736  .00001548  00000-0  11534-3 0  9996,2 53929  53.2160 162.3163 0001361  99.6679 260.4467 15.08842771 63759,6917.872,95.437,540.678,538.795,0.0
53929.0,STARLINK-5018,PAYLOAD,2023-11-12 20:20:42,15.08850299,0.0001365,53.2158,159.9376,94.5607,265.5542,0.00014524,2.025e-05,0.0,0 STARLINK-5018,1 53929U 22119AV  23316.84771364  .00002025  00000-0  14524-3 0  9996,2 53929  53.2158 159.9376 0001365  94.5607 265.5542 15.08850299 63836,6917.849,95.437,540.658,538.77,0.0
53929.0,STARLINK-5018,PAYLOAD,2023-11-13 20:11:29,15.08843771,0.0001335,53.2158,155.4776,88.7796,271.3349,0.00011646,1.566e-05,0.0,0 STARLINK-5018,1 53929U 22119AV  23317.84131609  .00001566  00000-0  11646-3 0  9990,2 53929  53.2158 155.4776 0001335  88.7796 271.3349 15.08843771 63569,6917.869,95.437,540.657,538.81,0.0
53929.0,STARLINK-5018,PAYLOAD,2023-11-14 05:43:48,15.08842515,0.0001308,53.2155,153.6936,86.8914,273.2228,7.068e-05,8.37e-06,0.0,0 STARLINK-5018,1 53929U 22119AV  23318.23875578  .00000837  00000-0  70680-4 0  9998,2 53929  53.2155 153.6936 0001308  86.8914 273.2228 15.08842515 64041,6917.873,95.437,540.643,538.833,0.0
53929.0,STARLINK-5018,PAYLOAD,2023-11-14 20:02:16,15.08841231,0.0001445,53.2167,151.0174,88.0038,272.1119,-1.0394e-05,-4.53e-06,0.0,0 STARLINK-5018,1 53929U 22119AV  23318.83491618 -.00000453  00000-0 -10394-4 0  9995,2 53929  53.2167 151.0174 0001445  88.0038 272.1119 15.08841231 64134,6917.877,95.437,540.741,538.742,0.0
53929.0,STARLINK-5018,PAYLOAD,2023-11-15 13:31:31,15.08837984,0.0001352,53.2165,147.7466,86.288,273.8267,2.603e-05,1.26e-06,0.0,0 STARLINK-5018,1 53929U 22119AV  23319.56355816  .00000126  00000-0  26030-4 0  9994,2 53929  53.2165 147.7466 0001352  86.2880 273.8267 15.08837984 64244,6917.887,95.438,540.687,538.816,0.0
53929.0,STARLINK-5018,PAYLOAD,2023-11-15 19:53:04,15.0883951,0.0001353,53.2166,146.5572,88.3138,271.8009,7.2498e-05,8.66e-06,0.0,0 STARLINK-5018,1 53929U 22119AV  23319.82851956  .00000866  00000-0  72498-4 0  9999,2 53929  53.2166 146.5572 0001353  88.3138 271.8009 15.08839510 64283,6917.882,95.438,540.683,538.811,0.0
53929.0,STARLINK-5018,PAYLOAD,2023-11-16 05:25:22,15.08838264,0.0001388,53.2162,144.7732,88.959,271.1561,6.7685e-05,7.89e-06,0.0,0 STARLINK-5018,1 53929U 22119AV  23320.22596045  .00000789  00000-0  67685-4 0  9996,2 53929  53.2162 144.7732 0001388  88.9590 271.1561 15.08838264 63924,6917.886,95.438,540.711,538.79,0.0
53929.0,STARLINK-5018,PAYLOAD,2023-11-16 21:19:13,15.0884475,0.00013,53.2164,141.7993,90.4214,269.6927,0.0001453,2.026e-05,0.0,0 STARLINK-5018,1 53929U 22119AV  23320.88835382  .00002026  00000-0  14530-3 0  9994,2 53929  53.2164 141.7993 0001300  90.4214 269.6927 15.08844750 64440,6917.866,95.437,540.63,538.832,0.0
53929.0,STARLINK-5018,PAYLOAD,2023-11-17 11:37:42,15.08836102,0.0001579,53.215,139.1237,89.906,270.2113,5.4151e-05,5.74e-06,0.0,0 STARLINK-5018,1 53929U 22119AV  23321.48452313  .00000574  00000-0  54151-4 0  9990,2 53929  53.2150 139.1237 0001579  89.9060 270.2113 15.08836102 64118,6917.892,95.438,540.85,538.665,0.0
53929.0,STARLINK-5018,PAYLOAD,2023-11-18 05:06:58,15.08822338,0.0001205,53.2144,135.8517,86.3499,273.763,0.00012775,1.745e-05,0.0,0 STARLINK-5018,1 53929U 22119AV  23322.21317318  .00001745  00000-0  12775-3 0  9993,2 53929  53.2144 135.8517 0001205  86.3499 273.7630 15.08822338 64228,6917.934,95.439,540.633,538.966,0.0
53929.0,STARLINK-5018,PAYLOAD,2023-11-18 17:50:02,15.08834547,0.0001028,53.214,133.4726,90.8957,269.2153,-3.0608e-05,-7.75e-06,0.0,0 STARLINK-5018,1 53929U 22119AV  23322.74308966 -.00000775  00000-0 -30608-4 0  9990,2 53929  53.2140 133.4726 0001028  90.8957 269.2153 15.08834547 64306,6917.897,95.438,540.473,539.051,0.0
53929.0,STARLINK-5018,PAYLOAD,2023-11-18 21:00:49,15.08831745,0.0001326,53.2185,132.8777,87.3132,272.8012,7.3972e-05,8.89e-06,0.0,0 STARLINK-5018,1 53929U 22119AV  23322.87556863  .00000889  00000-0  73972-4 0  9990,2 53929  53.2185 132.8777 0001326  87.3132 272.8012 15.08831745 64740,6917.906,95.438,540.688,538.853,0.0
53929.0,STARLINK-5018,PAYLOAD,2023-11-19 04:57:44,15.08833877,0.000134,53.2193,131.3917,84.8978,275.2167,8.8199e-05,1.116e-05,0.0,0 STARLINK-5018,1 53929U 22119AV  23323.20676956  .00001116  00000-0  88199-4 0  9995,2 53929  53.2193 131.3917 0001340  84.8978 275.2167 15.08833877 64796,6917.899,95.438,540.691,538.837,0.0
53929.0,STARLINK-5018,PAYLOAD,2023-11-19 20:51:36,15.08837951,0.0001353,53.2165,128.4179,85.3013,274.8134,0.00014352,1.997e-05,0.0,0 STARLINK-5018,1 53929U 22119AV  23323.86916712  .00001997  00000-0  14352-3 0  9990,2 53929  53.2165 128.4179 0001353  85.3013 274.8134 15.08837951 64899,6917.887,95.438,540.688,538.816,0.0
53929.0,STARLINK-5018,PAYLOAD,2023-11-20 14:20:49,15.0884821,0.0001361,53.2167,125.1472,84.2188,275.896,0.00017242,2.458e-05,0.0,0 STARLINK-5018,1 53929U 22119AV  23324.59780049  .00002458  00000-0  17242-3 0  9997,2 53929  53.2167 125.1472 0001361  84.2188 275.8960 15.08848210 65003,6917.855,95.437,540.662,538.779,0.0
53929.0,STARLINK-5018,PAYLOAD,2023-11-20 17:31:36,15.08851053,0.0001365,53.2169,124.5524,84.4707,275.6441,0.00019647,2.841e-05,0.0,0 STARLINK-5018,1 53929U 22119AV  23324.73027840  .00002841  00000-0  19647-3 0  9993,2 53929  53.2169 124.5524 0001365  84.4707 275.6441 15.08851053 64605,6917.847,95.437,540.656,538.767,0.0
